GLOBALSTAR M023         
1 25621U 99004A   25355.75356388 -.00000069  00000+0  19238-3 0  9994
2 25621  52.0079 202.2935 0009867 176.4086 262.6069 12.62510959239427
GLOBALSTAR M040         
1 25622U 99004B   25355.80213934 -.00000070  00000+0  19147-3 0  9991
2 25622  51.9891 206.5763 0002017  81.4513   0.6602 12.62025567238949
GLOBALSTAR M036         
1 25623U 99004C   25355.73999161 -.00000155  00000+0 -10567-2 0  9998
2 25623  51.9965 105.9625 0010855  53.5878  95.1787 11.86617321201240
GLOBALSTAR M038         
1 25624U 99004D   25355.74482728 -.00000056  00000+0  32106-3 0  9999
2 25624  51.9969 251.4234 0002754  76.6051 317.6843 12.32537671225507
GLOBALSTAR M022         
1 25649U 99012A   25355.87113050 -.00000125  00000+0 -45363-3 0  9995
2 25649  52.0020 140.6861 0003115 162.3496   4.8801 12.02508303198951
GLOBALSTAR M041         
1 25650U 99012B   25355.81891823 -.00000092  00000+0 -87452-4 0  9991
2 25650  52.0042  28.0001 0000922 340.4080  19.6721 11.96681206200745
GLOBALSTAR M046         
1 25651U 99012C   25355.72887669 -.00000151  00000+0 -69108-3 0  9998
2 25651  52.0057  84.3612 0001499 251.7312 275.2645 12.09415281206358
GLOBALSTAR M037         
1 25652U 99012D   25355.36352595 -.00000095  00000+0  51003-4 0  9996
2 25652  52.0025 334.0294 0001661 243.4929 281.8179 12.62458512234919
